#dP2023 11 17  0  0  0.00000000      96 __u+U IGS20 FIT  IAC
## 2288 432000.00000000   900.00000000 60265 0.0000000000000
+  118   C06C07C08C09C10C11C12C13C14C16C19C20C21C22C23C24C25
+        C26C27C28C29C30C32C33C34C35C36C37C38C39C40C41C42C43
+        C44C45C46E02E03E04E05E07E08E09E10E11E12E13E15E19E21
+        E24E25E26E27E30E31E33E34E36G01G02G03G04G05G06G07G08
+        G09G10G11G12G13G14G15G16G17G18G19G20G21G22G23G24G25
+        G26G27G28G29G30G31G32J02J03J04R01R02R03R04R05R07R08
+        R09R11R12R13R14R15R16R17R18R19R20R21R22R24R25R26  0
++         9  8  8  8  9  7  8  7  7  8  6  6  6  5  8  6  7
++         7  5  6  6  6  7  7  7  7  6  6  9  9  9  6  7  8
++         7  6  6  5  6  6  6  5  6  6  5  7  6  6  7  7  5
++         6  6  5  6  6  6  5  6  6  7  6  6  7  6  5  7  6
++         7  6  6  6  6  6  6  6  5  5  5  6  7  6  6  5  6
++         7  6  6  6  7  6  5  7  7  9  7  7  6  5  6  8  6
++         5  6  9  8  8  7  8  7  6  7  7  6  7  5  6  6  0
%c M  cc GPS ccc cccc cccc cccc cccc ccccc ccccc ccccc ccccc
%c cc cc ccc ccc cccc cccc cccc cccc ccccc ccccc ccccc ccccc
%f  0.0000000  0.000000000  0.00000000000  0.000000000000000
%f  0.0000000  0.000000000  0.00000000000  0.000000000000000
%i    0    0    0    0      0      0      0      0         0
%i    0    0    0    0      0      0      0      0         0
/* INFORMATION & ANALYSIS CENTER (IAC)      ULTRA-RAPID DATA
/* S/V CLOCKS ARE ALIGNED TO GNSS TIME                      
/* G:C1WC2W R:C1PC2P E:C1XC5X C:C2IC6I J:C1CC2S             
/* PCV:IGS20_2287 OL/AL:FES2004  NONE     YN ORB:CoN CLK:CoN
*  2023 11 17 13 15  0.00000000
PC06  -9200.541024  40487.555662  -6333.327733     27.454041
PC07  -5505.523945  27733.170221  31403.071315   -332.655414
PC08 -19440.390521  26003.743068 -27040.614746    235.178926
PC09  -3815.026282  41528.834502   3866.373314   -100.714674
PC10   4255.699889  30611.214575  29211.796623    -20.355635
PC11  -6886.057613 -26709.006867   4243.422235    260.663158
PC12   5285.089508 -23746.916745 -13615.711167    856.037456
PC13 -12769.636022  26918.692068 -29811.176363    383.850035
PC14 -12576.597973 -17303.129422  17902.723509    801.758972
PC16 -11023.554120  39308.502575  -9619.430322   -180.017287
PC19  20983.972015  14998.308538 -10653.500125   -967.847818
PC20   4206.691890  17044.866302 -21693.078333    108.897048
PC21  16693.980597  -8881.147758  20535.550528   -969.584978
PC22  26648.607096   4269.154724   7123.449785   -221.730033
PC23 -22176.336443   3198.884499 -16641.949810   -819.846814
PC24   8096.769489 -21723.189585 -15529.407348    605.131132
PC25 -10876.102138 -12148.831846 -22658.891482    257.697526
PC26  20700.365002 -18684.643778    -61.937533   -207.465650
PC27 -10576.454617  17228.718511  19218.818340    229.399858
PC28 -16279.282124  -1147.976539  22645.144931    173.144434
PC29  13348.289017  21320.323821 -12085.546047    202.570364
PC30   1683.837300  27206.046345   5931.885996     -8.511474
PC32 -16719.871448   8947.434318 -20463.666808   -535.469949
PC33 -20971.610973 -14924.553581  10766.317297   -944.608929
PC34  -2675.053796 -27416.001096  -4535.459368    305.355667
PC35  16368.837249    378.475035 -22601.537169    500.888595
PC36   9778.542961  13083.847831  22643.555981   -130.616144
PC37 -21448.500240  17867.571261   -623.023021   -889.907086
PC38 -25267.670101  27460.739859 -19778.993961    118.299706
PC39 -11481.215856  37768.241153 -14445.827476     -5.693046
PC40  -9024.530697  22038.275897  34848.815214    -44.325936
PC41 -26752.200790  -4714.024409  -6339.852631   -871.402796
PC42  -2432.780217 -16817.012214  22169.160866   -497.553266
PC43 -12980.471752 -21982.976847  11286.019429     48.634540
PC44  10141.800507 -17499.158658 -19247.523527    295.537848
PC45  22305.249864  -3724.692806  16326.268148    -46.912003
PC46  -7209.167471  21466.392571  16329.424194   -100.450667
PE02 -14794.216614 -13284.196914 -21937.596736     79.185620
PE03 -17560.602625 -23801.517082   1033.796859    -74.073960
PE04  22444.537400  10168.270488  16398.743960   -259.546102
PE05  -2532.455724 -23551.883150  17748.181617   4691.754413
PE07 -14411.155339   9103.058352 -24201.920598    -88.276084
PE08 -22431.535612 -10721.576673 -16067.047430   -178.384503
PE09  14391.666220  -8883.144733  24287.597803   -230.909805
PE10  18504.357389 -10106.310333 -20770.800505   -579.545699
PE11  17406.681943 -19992.926218 -13180.403325   3211.341326
PE12  16864.985476    320.624144 -24321.967608   -780.837276
PE13 -17526.702216  19445.390346  13825.101087    -19.607358
PE15 -16636.492422   -843.000008  24478.480239    -69.762117
PE19  16004.594179  24662.261189  -3403.540132  -1196.944497
PE21  -6557.447836  17041.662398  23298.752317   -564.587703
PE24  25396.013445 -10761.728564 -10720.023950   -436.580790
PE25   6970.963384 -17018.264530 -23186.106458     -3.297400
PE26  -7696.929507  28074.004870  -5383.023317    283.560646
PE27 -25091.033839  11077.848494  11152.938602   -202.113060
PE30 -28534.468929  -1690.436210  -7734.177592   -669.396172
PE31  28616.244604   1353.949918   7436.180856    -10.173712
PE33   5585.238698  20808.030792 -20296.046082      2.521534
PE34  -6065.523197 -20318.536029  20646.828363    -78.441367
PE36   8147.735698 -28057.073459   4763.529891   -145.276496
PG01 -14491.978222  20514.462835   7735.901747    163.211433
PG02 -15582.309147  16344.218424  14325.629605   -527.769931
PG03 -19034.253526  12026.489225 -14146.958357     -8.150096
PG04  -8142.940922  13847.428861 -21120.490410    215.340994
PG05  25970.303240  -5614.532465   1305.489712   -150.720892
PG06   9681.475599  12691.119896 -21139.874483    503.545529
PG07  -3629.324121  24771.890595   8581.377000     11.131581
PG08 -14911.330532   5484.360448  21259.623824   -152.535258
PG09   2236.861696  20960.152413 -16214.073859     -0.288673
PG10 -13775.183000 -11548.787613  19855.725489    -61.739600
PG11  15922.023601    622.800144 -21218.909215   -463.874383
PG12  20792.278619 -10390.166550 -13062.635338   -447.953570
PG13  17911.866120   5648.600066  18663.810724    596.239572
PG14   9793.087335  13807.809306  20528.333942    245.786294
PG15  13949.689484  -7861.683012  20728.120006     98.018082
PG16 -26533.421247  -1486.871191  -3854.403165   -420.496208
PG17  12270.953772  23182.835886   4124.327868    723.150854
PG18   3334.655894 -24363.952604   9805.911622   -481.643839
PG19  16790.375410  20115.783349  -5555.578476    400.147403
PG20  24056.251693    646.314273 -10982.688751    401.180244
PG21 -16214.678440  12650.383363  16774.611306    144.032121
PG22  16216.693231  11701.239861  17782.748047     82.272198
PG23    255.082893 -15027.618764  21898.526481    100.438543
PG24  14946.683098 -17658.808562  12263.676601   -373.324005
PG25   8593.000403 -15618.003219 -19930.475711    477.776822
PG26 -22865.428112  -5063.618753 -13000.410170    216.019163
PG27 -19996.242176  -8342.131860  15382.490113    -71.167678
PG28  -9456.625435 -14673.179112 -20044.696615    -48.227847
PG29   -158.748008 -20763.145874 -16546.942421   -610.200919
PG30   4406.923558  20512.440304  16252.145516   -467.292265
PG31 -14359.507547  -5730.832023 -21801.636696   -225.821222
PG32 -16213.887456 -21179.405349    461.856304   -586.748419
PJ02 -30157.352800  24234.426859  21830.840426     -0.199858
PJ03 -28786.686017  26921.677640  20051.303180     -8.556730
PJ04 -27737.713847  19793.889433 -19719.815810     72.530920
PR01 -22805.103314  -7651.438660  -8487.885935     70.026671
PR02 -13601.314893   3556.165890 -21264.070282    -22.341252
PR03   3113.847866  13401.023078 -21423.569580     89.201080
PR04  17616.889064  15572.365349  -9840.215288    211.456006
PR05  22589.617571   9460.690079   7080.925714    122.354447
PR07  -4019.277051 -13775.549663  21138.561135     69.321523
PR08 -17815.334636 -15510.953055   9733.839045    -73.311936
PR09  21030.756578 -14351.333947  -2120.404250    153.709223
PR11  -5821.374794  -9249.062186 -23039.381855   -213.829554
PR12 -20416.371677   3835.647143 -14792.529384     33.513132
PR13 -21843.328320  13178.463941   -121.636077    -41.394953
PR14  -9804.234311  15780.335262  17480.034294     25.550798
PR15   7176.458893   8571.863586  22944.237923     84.700191
PR16  20215.644278  -3818.868888  15108.453692     20.694584
PR17  -1703.728597  25224.109596   3584.835056     35.676133
PR18   5429.582943  21421.510931 -12678.614549    112.400102
PR19   9459.167079   8654.589534 -22046.471500   -254.985622
PR20   9193.007006 -14030.456614 -19215.956483   -103.691484
PR21   1555.579421 -25281.834947  -2863.885205    -54.099783
PR22  -5458.234996 -20981.467149  13479.701091     93.953281
PR24  -8902.241032  14886.067626  18736.124480    -32.492245
PR25   2803.077556 -25097.303800  -3501.065246     -5.323883
PR26 -17512.827314 -15448.475282  10258.460638    -16.334742
EOF
